{
  "type": "FeatureCollection",
  "features": [
    {
      "type": "Feature",
      "properties": {
        "norad_id": 54741,
        "name": "GALAXY 35 (G-35)",
        "group": "intelsat",
        "lat": 0.024537331662000433,
        "lon": 125.88591908351192,
        "alt_km": 35794.711347357385,
        "timestamp": "2025-12-06T09:34:16.585847+00:00",
        "meta_object_name": "GALAXY 35 (G-35)",
        "meta_object_id": "2022-170A",
        "meta_epoch": "2025-12-05T21:48:47.620800",
        "meta_mean_motion": 1.00271276,
        "meta_eccentricity": 0.00027349,
        "meta_inclination": 0.0159,
        "meta_ra_of_asc_node": 37.9543,
        "meta_arg_of_pericenter": 224.9569,
        "meta_mean_anomaly": 46.1559,
        "meta_ephemeris_type": 0,
        "meta_classification_type": "U",
        "meta_norad_cat_id": 54741,
        "meta_element_set_no": 999,
        "meta_rev_at_epoch": 1095,
        "meta_bstar": 0,
        "meta_mean_motion_dot": -1.53e-06,
        "meta_mean_motion_ddot": 0,
        "tle_line1": "1 54741U 22170A   25339.90888450 -.00000153  00000+0  00000+0 0  9995",
        "tle_line2": "2 54741   0.0159  37.9543 0002734 224.9569  46.1559  1.00271276 10953"
      },
      "geometry": {
        "type": "Point",
        "coordinates": [
          125.88591908351192,
          0.024537331662000433
        ]
      }
    },
    {
      "type": "Feature",
      "properties": {
        "norad_id": 54742,
        "name": "GALAXY 36 (G-36)",
        "group": "intelsat",
        "lat": -0.0015748209724041119,
        "lon": 129.992234812554,
        "alt_km": 35788.048646890624,
        "timestamp": "2025-12-06T09:34:16.585858+00:00",
        "meta_object_name": "GALAXY 36 (G-36)",
        "meta_object_id": "2022-170B",
        "meta_epoch": "2025-12-05T21:50:02.501952",
        "meta_mean_motion": 1.00270891,
        "meta_eccentricity": 6.245e-05,
        "meta_inclination": 0.0166,
        "meta_ra_of_asc_node": 287.0856,
        "meta_arg_of_pericenter": 332.553,
        "meta_mean_anomaly": 53.8325,
        "meta_ephemeris_type": 0,
        "meta_classification_type": "U",
        "meta_norad_cat_id": 54742,
        "meta_element_set_no": 999,
        "meta_rev_at_epoch": 1083,
        "meta_bstar": 0,
        "meta_mean_motion_dot": -1.76e-06,
        "meta_mean_motion_ddot": 0,
        "tle_line1": "1 54742U 22170B   25339.90975118 -.00000176  00000+0  00000+0 0  9999",
        "tle_line2": "2 54742   0.0166 287.0856 0000624 332.5530  53.8325  1.00270891 10832"
      },
      "geometry": {
        "type": "Point",
        "coordinates": [
          129.992234812554,
          -0.0015748209724041119
        ]
      }
    },
    {
      "type": "Feature",
      "properties": {
        "norad_id": 57493,
        "name": "GALAXY 37 (G-37)",
        "group": "intelsat",
        "lat": 0.033285982134168175,
        "lon": 91.99358406712962,
        "alt_km": 35796.38993206037,
        "timestamp": "2025-12-06T09:34:16.585869+00:00",
        "meta_object_name": "GALAXY 37 (G-37)",
        "meta_object_id": "2023-112A",
        "meta_epoch": "2025-12-05T21:39:11.041632",
        "meta_mean_motion": 1.00270213,
        "meta_eccentricity": 0.00024023,
        "meta_inclination": 0.013,
        "meta_ra_of_asc_node": 330.3342,
        "meta_arg_of_pericenter": 288.3562,
        "meta_mean_anomaly": 14.0621,
        "meta_ephemeris_type": 0,
        "meta_classification_type": "U",
        "meta_norad_cat_id": 57493,
        "meta_element_set_no": 999,
        "meta_rev_at_epoch": 860,
        "meta_bstar": 0,
        "meta_mean_motion_dot": 5.7e-07,
        "meta_mean_motion_ddot": 0,
        "tle_line1": "1 57493U 23112A   25339.90221113  .00000057  00000+0  00000+0 0  9998",
        "tle_line2": "2 57493   0.0130 330.3342 0002402 288.3562  14.0621  1.00270213  8608"
      },
      "geometry": {
        "type": "Point",
        "coordinates": [
          91.99358406712962,
          0.033285982134168175
        ]
      }
    }
  ]
}